[{"OBJECT_NAME":"ONEWEB-0161","OBJECT_ID":"2021-025M","EPOCH":"2026-03-15T05:48:26.422272","MEAN_MOTION":13.13472864,"ECCENTRICITY":0.00019589,"INCLINATION":87.9038,"RA_OF_ASC_NODE":338.9124,"ARG_OF_PERICENTER":70.3116,"MEAN_ANOMALY":289.8224,"EPHEMERIS_TYPE":0,"CLASSIFICATION_TYPE":"U","NORAD_CAT_ID":48053,"ELEMENT_SET_NO":999,"REV_AT_EPOCH":24117,"BSTAR":-0.0010069599,"MEAN_MOTION_DOT":-3.55e-6,"MEAN_MOTION_DDOT":0},{"OBJECT_NAME":"ONEWEB-0158","OBJECT_ID":"2021-025N","EPOCH":"2026-03-15T06:39:37.579392","MEAN_MOTION":13.13470349,"ECCENTRICITY":0.00016877,"INCLINATION":87.9041,"RA_OF_ASC_NODE":338.897,"ARG_OF_PERICENTER":89.6526,"MEAN_ANOMALY":270.4796,"EPHEMERIS_TYPE":0,"CLASSIFICATION_TYPE":"U","NORAD_CAT_ID":48054,"ELEMENT_SET_NO":999,"REV_AT_EPOCH":24130,"BSTAR":0.00018777801,"MEAN_MOTION_DOT":8.1e-7,"MEAN_MOTION_DDOT":0},{"OBJECT_NAME":"ONEWEB-0157","OBJECT_ID":"2021-025P","EPOCH":"2026-03-15T05:26:29.723424","MEAN_MOTION":13.13470509,"ECCENTRICITY":0.00021259,"INCLINATION":87.9041,"RA_OF_ASC_NODE":338.9115,"ARG_OF_PERICENTER":72.6049,"MEAN_ANOMALY":287.5313,"EPHEMERIS_TYPE":0,"CLASSIFICATION_TYPE":"U","NORAD_CAT_ID":48055,"ELEMENT_SET_NO":999,"REV_AT_EPOCH":24123,"BSTAR":-0.00080996428,"MEAN_MOTION_DOT":-2.83e-6,"MEAN_MOTION_DDOT":0},{"OBJECT_NAME":"ONEWEB-0162","OBJECT_ID":"2021-025Q","EPOCH":"2026-03-15T04:52:09.528384","MEAN_MOTION":13.13468001,"ECCENTRICITY":0.00016873,"INCLINATION":87.9041,"RA_OF_ASC_NODE":338.9204,"ARG_OF_PERICENTER":75.1839,"MEAN_ANOMALY":284.9477,"EPHEMERIS_TYPE":0,"CLASSIFICATION_TYPE":"U","NORAD_CAT_ID":48056,"ELEMENT_SET_NO":999,"REV_AT_EPOCH":24120,"BSTAR":8.1888957e-5,"MEAN_MOTION_DOT":4.3e-7,"MEAN_MOTION_DDOT":0},{"OBJECT_NAME":"ONEWEB-0155","OBJECT_ID":"2021-025R","EPOCH":"2026-03-15T05:02:07.252224","MEAN_MOTION":13.13469886,"ECCENTRICITY":0.00019199,"INCLINATION":87.9034,"RA_OF_ASC_NODE":338.9181,"ARG_OF_PERICENTER":78.9681,"MEAN_ANOMALY":281.1664,"EPHEMERIS_TYPE":0,"CLASSIFICATION_TYPE":"U","NORAD_CAT_ID":48057,"ELEMENT_SET_NO":999,"REV_AT_EPOCH":24134,"BSTAR":-0.00040211905,"MEAN_MOTION_DOT":-1.34e-6,"MEAN_MOTION_DDOT":0},{"OBJECT_NAME":"ONEWEB-0149","OBJECT_ID":"2021-025S","EPOCH":"2026-03-15T05:33:48.256128","MEAN_MOTION":13.13470945,"ECCENTRICITY":0.00016387,"INCLINATION":87.9041,"RA_OF_ASC_NODE":338.9108,"ARG_OF_PERICENTER":72.2254,"MEAN_ANOMALY":287.9054,"EPHEMERIS_TYPE":0,"CLASSIFICATION_TYPE":"U","NORAD_CAT_ID":48058,"ELEMENT_SET_NO":999,"REV_AT_EPOCH":24115,"BSTAR":-0.00034686676,"MEAN_MOTION_DOT":-1.14e-6,"MEAN_MOTION_DDOT":0},{"OBJECT_NAME":"ONEWEB-0148","OBJECT_ID":"2021-025T","EPOCH":"2026-03-15T06:29:51.612000","MEAN_MOTION":13.13472079,"ECCENTRICITY":0.00016711,"INCLINATION":87.9032,"RA_OF_ASC_NODE":338.9174,"ARG_OF_PERICENTER":57.8259,"MEAN_ANOMALY":302.3032,"EPHEMERIS_TYPE":0,"CLASSIFICATION_TYPE":"U","NORAD_CAT_ID":48059,"ELEMENT_SET_NO":999,"REV_AT_EPOCH":24128,"BSTAR":0.00079793874,"MEAN_MOTION_DOT":3.04e-6,"MEAN_MOTION_DDOT":0},{"OBJECT_NAME":"ONEWEB-0160","OBJECT_ID":"2021-025U","EPOCH":"2026-03-15T05:04:32.717856","MEAN_MOTION":13.13470414,"ECCENTRICITY":0.00013272,"INCLINATION":87.9031,"RA_OF_ASC_NODE":338.9256,"ARG_OF_PERICENTER":102.4849,"MEAN_ANOMALY":257.6429,"EPHEMERIS_TYPE":0,"CLASSIFICATION_TYPE":"U","NORAD_CAT_ID":48060,"ELEMENT_SET_NO":999,"REV_AT_EPOCH":24122,"BSTAR":-0.00051934523,"MEAN_MOTION_DOT":-1.77e-6,"MEAN_MOTION_DDOT":0},{"OBJECT_NAME":"ONEWEB-0163","OBJECT_ID":"2021-025V","EPOCH":"2026-03-15T06:32:18.981888","MEAN_MOTION":13.13470414,"ECCENTRICITY":0.00020132,"INCLINATION":87.9034,"RA_OF_ASC_NODE":338.9058,"ARG_OF_PERICENTER":74.5414,"MEAN_ANOMALY":285.5937,"EPHEMERIS_TYPE":0,"CLASSIFICATION_TYPE":"U","NORAD_CAT_ID":48061,"ELEMENT_SET_NO":999,"REV_AT_EPOCH":24135,"BSTAR":0.00054540607,"MEAN_MOTION_DOT":2.12e-6,"MEAN_MOTION_DDOT":0},{"OBJECT_NAME":"ONEWEB-0159","OBJECT_ID":"2021-025W","EPOCH":"2026-03-15T06:20:07.739808","MEAN_MOTION":13.13469585,"ECCENTRICITY":0.00018669,"INCLINATION":87.9043,"RA_OF_ASC_NODE":338.8943,"ARG_OF_PERICENTER":72.658,"MEAN_ANOMALY":287.4754,"EPHEMERIS_TYPE":0,"CLASSIFICATION_TYPE":"U","NORAD_CAT_ID":48062,"ELEMENT_SET_NO":999,"REV_AT_EPOCH":24127,"BSTAR":0.00099671092,"MEAN_MOTION_DOT":3.77e-6,"MEAN_MOTION_DDOT":0},{"OBJECT_NAME":"ONEWEB-0164","OBJECT_ID":"2021-025X","EPOCH":"2026-03-15T05:53:18.589056","MEAN_MOTION":13.13471321,"ECCENTRICITY":0.00017153,"INCLINATION":87.9043,"RA_OF_ASC_NODE":338.9047,"ARG_OF_PERICENTER":80.867,"MEAN_ANOMALY":279.2653,"EPHEMERIS_TYPE":0,"CLASSIFICATION_TYPE":"U","NORAD_CAT_ID":48063,"ELEMENT_SET_NO":999,"REV_AT_EPOCH":24125,"BSTAR":0.00048893376,"MEAN_MOTION_DOT":1.91e-6,"MEAN_MOTION_DDOT":0},{"OBJECT_NAME":"ONEWEB-0167","OBJECT_ID":"2021-025Y","EPOCH":"2026-03-15T06:33:33.041376","MEAN_MOTION":13.13470987,"ECCENTRICITY":0.00023988,"INCLINATION":87.9032,"RA_OF_ASC_NODE":338.9178,"ARG_OF_PERICENTER":84.7957,"MEAN_ANOMALY":275.3446,"EPHEMERIS_TYPE":0,"CLASSIFICATION_TYPE":"U","NORAD_CAT_ID":48064,"ELEMENT_SET_NO":999,"REV_AT_EPOCH":24124,"BSTAR":0.00051442256,"MEAN_MOTION_DOT":2.01e-6,"MEAN_MOTION_DDOT":0},{"OBJECT_NAME":"ONEWEB-0166","OBJECT_ID":"2021-025Z","EPOCH":"2026-03-15T05:16:44.174208","MEAN_MOTION":13.1347055,"ECCENTRICITY":0.0001737,"INCLINATION":87.904,"RA_OF_ASC_NODE":338.8917,"ARG_OF_PERICENTER":72.9907,"MEAN_ANOMALY":287.1412,"EPHEMERIS_TYPE":0,"CLASSIFICATION_TYPE":"U","NORAD_CAT_ID":48065,"ELEMENT_SET_NO":999,"REV_AT_EPOCH":24131,"BSTAR":-0.00083096389,"MEAN_MOTION_DOT":-2.91e-6,"MEAN_MOTION_DDOT":0},{"OBJECT_NAME":"ONEWEB-0151","OBJECT_ID":"2021-025AA","EPOCH":"2026-03-15T05:19:11.196768","MEAN_MOTION":13.13470517,"ECCENTRICITY":0.00018416,"INCLINATION":87.9032,"RA_OF_ASC_NODE":338.9168,"ARG_OF_PERICENTER":80.716,"MEAN_ANOMALY":279.4178,"EPHEMERIS_TYPE":0,"CLASSIFICATION_TYPE":"U","NORAD_CAT_ID":48066,"ELEMENT_SET_NO":999,"REV_AT_EPOCH":24125,"BSTAR":-0.00069250303,"MEAN_MOTION_DOT":-2.4e-6,"MEAN_MOTION_DDOT":0},{"OBJECT_NAME":"ONEWEB-0170","OBJECT_ID":"2021-025AB","EPOCH":"2026-03-15T05:31:21.876384","MEAN_MOTION":13.13471359,"ECCENTRICITY":0.00017995,"INCLINATION":87.9033,"RA_OF_ASC_NODE":338.9164,"ARG_OF_PERICENTER":93.6067,"MEAN_ANOMALY":266.5268,"EPHEMERIS_TYPE":0,"CLASSIFICATION_TYPE":"U","NORAD_CAT_ID":48067,"ELEMENT_SET_NO":999,"REV_AT_EPOCH":24121,"BSTAR":-0.00054824039,"MEAN_MOTION_DOT":-1.87e-6,"MEAN_MOTION_DDOT":0},{"OBJECT_NAME":"ONEWEB-0168","OBJECT_ID":"2021-025AC","EPOCH":"2026-03-15T05:09:25.373664","MEAN_MOTION":13.13470508,"ECCENTRICITY":0.00019034,"INCLINATION":87.9041,"RA_OF_ASC_NODE":338.9114,"ARG_OF_PERICENTER":74.5831,"MEAN_ANOMALY":285.5508,"EPHEMERIS_TYPE":0,"CLASSIFICATION_TYPE":"U","NORAD_CAT_ID":48068,"ELEMENT_SET_NO":999,"REV_AT_EPOCH":24122,"BSTAR":-0.00060482862,"MEAN_MOTION_DOT":-2.08e-6,"MEAN_MOTION_DDOT":0}]
