ONEWEB-0161             
1 48053U 21025M   26074.24197248 -.00000355  00000+0 -10070-2 0  9990
2 48053  87.9038 338.9124 0001958  70.3116 289.8224 13.13472864241177
ONEWEB-0158             
1 48054U 21025N   26074.27751828  .00000081  00000+0  18778-3 0  9992
2 48054  87.9041 338.8970 0001687  89.6526 270.4796 13.13470349241308
ONEWEB-0157             
1 48055U 21025P   26074.22673291 -.00000283  00000+0 -80996-3 0  9992
2 48055  87.9041 338.9115 0002125  72.6049 287.5313 13.13470509241235
ONEWEB-0162             
1 48056U 21025Q   26074.20288806  .00000043  00000+0  81889-4 0  9990
2 48056  87.9041 338.9204 0001687  75.1839 284.9477 13.13468001241205
ONEWEB-0155             
1 48057U 21025R   26074.20980616 -.00000134  00000+0 -40212-3 0  9996
2 48057  87.9034 338.9181 0001919  78.9681 281.1664 13.13469886241340
ONEWEB-0149             
1 48058U 21025S   26074.23180852 -.00000114  00000+0 -34687-3 0  9991
2 48058  87.9041 338.9108 0001638  72.2254 287.9054 13.13470945241153
ONEWEB-0148             
1 48059U 21025T   26074.27073625  .00000304  00000+0  79794-3 0  9992
2 48059  87.9032 338.9174 0001671  57.8259 302.3032 13.13472079241280
ONEWEB-0160             
1 48060U 21025U   26074.21148979 -.00000177  00000+0 -51935-3 0  9990
2 48060  87.9031 338.9256 0001327 102.4849 257.6429 13.13470414241229
ONEWEB-0163             
1 48061U 21025V   26074.27244192  .00000212  00000+0  54541-3 0  9995
2 48061  87.9034 338.9058 0002013  74.5414 285.5937 13.13470414241351
ONEWEB-0159             
1 48062U 21025W   26074.26397847  .00000377  00000+0  99671-3 0  9996
2 48062  87.9043 338.8943 0001866  72.6580 287.4754 13.13469585241278
ONEWEB-0164             
1 48063U 21025X   26074.24535404  .00000191  00000+0  48893-3 0  9992
2 48063  87.9043 338.9047 0001715  80.8670 279.2653 13.13471321241255
ONEWEB-0167             
1 48064U 21025Y   26074.27329909  .00000201  00000+0  51442-3 0  9993
2 48064  87.9032 338.9178 0002398  84.7957 275.3446 13.13470987241241
ONEWEB-0166             
1 48065U 21025Z   26074.21995572 -.00000291  00000+0 -83096-3 0  9994
2 48065  87.9040 338.8917 0001737  72.9907 287.1412 13.13470550241319
ONEWEB-0151             
1 48066U 21025AA  26074.22165737 -.00000240  00000+0 -69250-3 0  9998
2 48066  87.9032 338.9168 0001841  80.7160 279.4178 13.13470517241253
ONEWEB-0170             
1 48067U 21025AB  26074.23011431 -.00000187  00000+0 -54824-3 0  9992
2 48067  87.9033 338.9164 0001799  93.6067 266.5268 13.13471359241210
ONEWEB-0168             
1 48068U 21025AC  26074.21487701 -.00000208  00000+0 -60483-3 0  9990
2 48068  87.9041 338.9114 0001903  74.5831 285.5508 13.13470508241223
